STARLINK-2182
1 17764C 21017AU  21326.13576052 -.00019229  00000-0 -12884-2 0  3266
2 17764  53.0562  68.1351 0001134  75.1915 228.7669 15.06418073    18
